start=new Date('2022-11-15T00:00:00.000Z').valueOf();
sats=[{"REV_AT_EPOCH":"130","ELEMENT_SET_NO":"999","ECCENTRICITY":"0.00017400","CENTER_NAME":"EARTH","ARG_OF_PERICENTER":"27.2811","FILE":"3656014","INCLINATION":"53.2172","OBJECT_NAME":"STARLINK-5148","PERIAPSIS":"443.469","GP_ID":"217788018","PERIOD":"93.477","MEAN_MOTION_DDOT":"0.0000000000000","MEAN_ELEMENT_THEORY":"SGP4","RCS_SIZE":"LARGE","MEAN_ANOMALY":"119.0783","EPOCH":"2022-11-14T22:00:00.999936","TLE_LINE1":"1 53978U 22125Q   22318.91667824 -.01072193  00000-0 -28349-1 0  9995","OBJECT_ID":"2022-125Q","SEMIMAJOR_AXIS":"6822.792","LAUNCH_DATE":"2022-10-05","SITE":"AFWTR","RA_OF_ASC_NODE":"255.8141","EPHEMERIS_TYPE":"0","TLE_LINE2":"2 53978  53.2172 255.8141 0001740  27.2811 119.0783 15.40492581  1305","DECAY_DATE":null,"TIME_SYSTEM":"UTC","OBJECT_TYPE":"PAYLOAD","COUNTRY_CODE":"US","MEAN_MOTION":"15.40492581","MEAN_MOTION_DOT":"-0.01072193","APOAPSIS":"445.844","BSTAR":"-0.02834900000000","REF_FRAME":"TEME","CLASSIFICATION_TYPE":"U","NORAD_CAT_ID":"53978"},{"APOAPSIS":"447.176","MEAN_MOTION_DOT":"-0.01140377","NORAD_CAT_ID":"53979","CLASSIFICATION_TYPE":"U","REF_FRAME":"TEME","BSTAR":"-0.03089100000000","TLE_LINE2":"2 53979  53.2177 255.8369 0001276  85.5677  48.9406 15.39934238  1304","EPHEMERIS_TYPE":"0","MEAN_MOTION":"15.39934238","TIME_SYSTEM":"UTC","DECAY_DATE":null,"OBJECT_TYPE":"PAYLOAD","COUNTRY_CODE":"US","MEAN_ANOMALY":"48.9406","EPOCH":"2022-11-14T22:00:00.999936","TLE_LINE1":"1 53979U 22125R   22318.91667824 -.01140377  00000-0 -30891-1 0  9991","MEAN_MOTION_DDOT":"0.0000000000000","MEAN_ELEMENT_THEORY":"SGP4","RCS_SIZE":"LARGE","LAUNCH_DATE":"2022-10-05","SITE":"AFWTR","RA_OF_ASC_NODE":"255.8369","SEMIMAJOR_AXIS":"6824.441","OBJECT_ID":"2022-125R","INCLINATION":"53.2177","FILE":"3656014","OBJECT_NAME":"STARLINK-5123","REV_AT_EPOCH":"130","ELEMENT_SET_NO":"999","ECCENTRICITY":"0.00012760","CENTER_NAME":"EARTH","ARG_OF_PERICENTER":"85.5677","GP_ID":"217788338","PERIOD":"93.510","PERIAPSIS":"445.435"},{"EPHEMERIS_TYPE":"0","TLE_LINE2":"2 53980  53.2178 255.7845 0001457  59.5379 101.3778 15.41500355  1304","TIME_SYSTEM":"UTC","DECAY_DATE":null,"COUNTRY_CODE":"US","OBJECT_TYPE":"PAYLOAD","MEAN_MOTION":"15.41500355","MEAN_MOTION_DOT":"-0.01140110","APOAPSIS":"442.676","BSTAR":"-0.02930900000000","CLASSIFICATION_TYPE":"U","REF_FRAME":"TEME","NORAD_CAT_ID":"53980","ELEMENT_SET_NO":"999","CENTER_NAME":"EARTH","ECCENTRICITY":"0.00014570","REV_AT_EPOCH":"130","ARG_OF_PERICENTER":"59.5379","INCLINATION":"53.2178","FILE":"3656014","OBJECT_NAME":"STARLINK-5133","PERIAPSIS":"440.689","GP_ID":"217787849","PERIOD":"93.415","MEAN_MOTION_DDOT":"0.0000000000000","RCS_SIZE":"LARGE","MEAN_ELEMENT_THEORY":"SGP4","MEAN_ANOMALY":"101.3778","TLE_LINE1":"1 53980U 22125S   22318.91667824 -.01140110  00000-0 -29309-1 0  9990","EPOCH":"2022-11-14T22:00:00.999936","SEMIMAJOR_AXIS":"6819.818","OBJECT_ID":"2022-125S","LAUNCH_DATE":"2022-10-05","SITE":"AFWTR","RA_OF_ASC_NODE":"255.7845"},{"LAUNCH_DATE":"2022-10-05","RA_OF_ASC_NODE":"253.8335","SITE":"AFWTR","OBJECT_ID":"2022-125T","SEMIMAJOR_AXIS":"6727.534","MEAN_ANOMALY":"32.1940","EPOCH":"2022-11-14T22:00:00.999936","TLE_LINE1":"1 53981U 22125T   22318.91667824 -.00157642  00000-0 -11336-2 0  9990","MEAN_MOTION_DDOT":"0.0000000000000","MEAN_ELEMENT_THEORY":"SGP4","RCS_SIZE":"LARGE","GP_ID":"217788188","PERIOD":"91.526","PERIAPSIS":"347.967","INCLINATION":"53.2183","FILE":"3656014","OBJECT_NAME":"STARLINK-5149","REV_AT_EPOCH":"130","ELEMENT_SET_NO":"999","CENTER_NAME":"EARTH","ECCENTRICITY":"0.00021290","ARG_OF_PERICENTER":"27.9609","CLASSIFICATION_TYPE":"U","REF_FRAME":"TEME","NORAD_CAT_ID":"53981","BSTAR":"-0.00113360000000","APOAPSIS":"350.832","MEAN_MOTION_DOT":"-0.00157642","MEAN_MOTION":"15.73326587","DECAY_DATE":null,"TIME_SYSTEM":"UTC","OBJECT_TYPE":"PAYLOAD","COUNTRY_CODE":"US","TLE_LINE2":"2 53981  53.2183 253.8335 0002129  27.9609  32.1940 15.73326587  1306","EPHEMERIS_TYPE":"0"},{"MEAN_MOTION_DOT":"-0.01130820","APOAPSIS":"396.378","BSTAR":"-0.01684400000000","REF_FRAME":"TEME","CLASSIFICATION_TYPE":"U","NORAD_CAT_ID":"53982","EPHEMERIS_TYPE":"0","TLE_LINE2":"2 53982  53.2178 254.2379 0001263  92.7273 115.5211 15.57284304  1308","OBJECT_TYPE":"PAYLOAD","COUNTRY_CODE":"US","TIME_SYSTEM":"UTC","DECAY_DATE":null,"MEAN_MOTION":"15.57284304","MEAN_ELEMENT_THEORY":"SGP4","RCS_SIZE":"LARGE","MEAN_MOTION_DDOT":"0.0000000000000","EPOCH":"2022-11-14T22:00:00.999936","TLE_LINE1":"1 53982U 22125U   22318.91667824 -.01130820  00000-0 -16844-1 0  9999","MEAN_ANOMALY":"115.5211","SEMIMAJOR_AXIS":"6773.658","OBJECT_ID":"2022-125U","SITE":"AFWTR","RA_OF_ASC_NODE":"254.2379","LAUNCH_DATE":"2022-10-05","ARG_OF_PERICENTER":"92.7273","REV_AT_EPOCH":"130","ECCENTRICITY":"0.00012630","ELEMENT_SET_NO":"999","CENTER_NAME":"EARTH","OBJECT_NAME":"STARLINK-5120","INCLINATION":"53.2178","FILE":"3656014","PERIAPSIS":"394.667","PERIOD":"92.469","GP_ID":"217787653"},{"MEAN_MOTION":"15.73219397","COUNTRY_CODE":"US","OBJECT_TYPE":"PAYLOAD","TIME_SYSTEM":"UTC","DECAY_DATE":null,"TLE_LINE2":"2 53983  53.2158 254.2531 0002854   9.7514 287.2956 15.73219397  1301","EPHEMERIS_TYPE":"0","CLASSIFICATION_TYPE":"U","REF_FRAME":"TEME","NORAD_CAT_ID":"53983","BSTAR":"0.00024416000000","APOAPSIS":"351.625","MEAN_MOTION_DOT":"0.00033816","PERIOD":"91.532","GP_ID":"217788652","PERIAPSIS":"347.785","OBJECT_NAME":"STARLINK-5103","FILE":"3656014","INCLINATION":"53.2158","ARG_OF_PERICENTER":"9.7514","ELEMENT_SET_NO":"999","ECCENTRICITY":"0.00028540","CENTER_NAME":"EARTH","REV_AT_EPOCH":"130","SITE":"AFWTR","RA_OF_ASC_NODE":"254.2531","LAUNCH_DATE":"2022-10-05","OBJECT_ID":"2022-125V","SEMIMAJOR_AXIS":"6727.840","TLE_LINE1":"1 53983U 22125V   22318.83334491  .00033816  00000-0  24416-3 0  9992","EPOCH":"2022-11-14T20:00:01.000224","MEAN_ANOMALY":"287.2956","RCS_SIZE":"LARGE","MEAN_ELEMENT_THEORY":"SGP4","MEAN_MOTION_DDOT":"0.0000000000000"},{"CLASSIFICATION_TYPE":"U","NORAD_CAT_ID":"53984","REF_FRAME":"TEME","BSTAR":"-0.01685300000000","APOAPSIS":"396.577","MEAN_MOTION_DOT":"-0.01130364","MEAN_MOTION":"15.57256845","TIME_SYSTEM":"UTC","DECAY_DATE":null,"COUNTRY_CODE":"US","OBJECT_TYPE":"PAYLOAD","TLE_LINE2":"2 53984  53.2178 254.2477 0001439  55.6193 147.8168 15.57256845  1301","EPHEMERIS_TYPE":"0","LAUNCH_DATE":"2022-10-05","SITE":"AFWTR","RA_OF_ASC_NODE":"254.2477","OBJECT_ID":"2022-125W","SEMIMAJOR_AXIS":"6773.737","MEAN_ANOMALY":"147.8168","TLE_LINE1":"1 53984U 22125W   22318.91667824 -.01130364  00000-0 -16853-1 0  9994","EPOCH":"2022-11-14T22:00:00.999936","MEAN_MOTION_DDOT":"0.0000000000000","RCS_SIZE":"LARGE","MEAN_ELEMENT_THEORY":"SGP4","GP_ID":"217787483","PERIOD":"92.470","PERIAPSIS":"394.627","FILE":"3656014","INCLINATION":"53.2178","OBJECT_NAME":"STARLINK-5142","ELEMENT_SET_NO":"999","ECCENTRICITY":"0.00014390","CENTER_NAME":"EARTH","REV_AT_EPOCH":"130","ARG_OF_PERICENTER":"55.6193"},{"EPHEMERIS_TYPE":"0","TLE_LINE2":"2 53985  53.2178 254.2519 0001264  91.7106 109.6002 15.57217513  1302","TIME_SYSTEM":"UTC","DECAY_DATE":null,"OBJECT_TYPE":"PAYLOAD","COUNTRY_CODE":"US","MEAN_MOTION":"15.57217513","MEAN_MOTION_DOT":"-0.01130731","APOAPSIS":"396.572","BSTAR":"-0.01688500000000","NORAD_CAT_ID":"53985","CLASSIFICATION_TYPE":"U","REF_FRAME":"TEME","REV_AT_EPOCH":"130","ELEMENT_SET_NO":"999","ECCENTRICITY":"0.00012640","CENTER_NAME":"EARTH","ARG_OF_PERICENTER":"91.7106","FILE":"3656014","INCLINATION":"53.2178","OBJECT_NAME":"STARLINK-5147","PERIAPSIS":"394.860","GP_ID":"217788501","PERIOD":"92.473","MEAN_MOTION_DDOT":"0.0000000000000","MEAN_ELEMENT_THEORY":"SGP4","RCS_SIZE":"LARGE","MEAN_ANOMALY":"109.6002","EPOCH":"2022-11-14T22:00:00.999936","TLE_LINE1":"1 53985U 22125X   22318.91667824 -.01130731  00000-0 -16885-1 0  9998","OBJECT_ID":"2022-125X","SEMIMAJOR_AXIS":"6773.851","LAUNCH_DATE":"2022-10-05","RA_OF_ASC_NODE":"254.2519","SITE":"AFWTR"},{"GP_ID":"217788019","PERIOD":"91.520","PERIAPSIS":"348.067","FILE":"3656014","INCLINATION":"53.2166","OBJECT_NAME":"STARLINK-5119","ELEMENT_SET_NO":"999","ECCENTRICITY":"0.00015600","CENTER_NAME":"EARTH","REV_AT_EPOCH":"130","ARG_OF_PERICENTER":"41.7210","LAUNCH_DATE":"2022-10-05","RA_OF_ASC_NODE":"253.5850","SITE":"AFWTR","SEMIMAJOR_AXIS":"6727.252","OBJECT_ID":"2022-125Y","MEAN_ANOMALY":"135.9580","TLE_LINE1":"1 53986U 22125Y   22318.91667824 -.00444495  00000-0 -33005-2 0  9997","EPOCH":"2022-11-14T22:00:00.999936","MEAN_MOTION_DDOT":"0.0000000000000","RCS_SIZE":"LARGE","MEAN_ELEMENT_THEORY":"SGP4","MEAN_MOTION":"15.73425769","TIME_SYSTEM":"UTC","DECAY_DATE":null,"COUNTRY_CODE":"US","OBJECT_TYPE":"PAYLOAD","TLE_LINE2":"2 53986  53.2166 253.5850 0001560  41.7210 135.9580 15.73425769  1305","EPHEMERIS_TYPE":"0","CLASSIFICATION_TYPE":"U","REF_FRAME":"TEME","NORAD_CAT_ID":"53986","BSTAR":"-0.00330050000000","APOAPSIS":"350.166","MEAN_MOTION_DOT":"-0.00444495"},{"APOAPSIS":"396.520","MEAN_MOTION_DOT":"-0.01130584","REF_FRAME":"TEME","CLASSIFICATION_TYPE":"U","NORAD_CAT_ID":"53987","BSTAR":"-0.01687000000000","TLE_LINE2":"2 53987  53.2178 254.2498 0001271  80.7816 121.5921 15.57237212  1305","EPHEMERIS_TYPE":"0","MEAN_MOTION":"15.57237212","OBJECT_TYPE":"PAYLOAD","COUNTRY_CODE":"US","DECAY_DATE":null,"TIME_SYSTEM":"UTC","EPOCH":"2022-11-14T22:00:00.999936","TLE_LINE1":"1 53987U 22125Z   22318.91667824 -.01130584  00000-0 -16870-1 0  9990","MEAN_ANOMALY":"121.5921","MEAN_ELEMENT_THEORY":"SGP4","RCS_SIZE":"LARGE","MEAN_MOTION_DDOT":"0.0000000000000","RA_OF_ASC_NODE":"254.2498","SITE":"AFWTR","LAUNCH_DATE":"2022-10-05","SEMIMAJOR_AXIS":"6773.794","OBJECT_ID":"2022-125Z","OBJECT_NAME":"STARLINK-5112","FILE":"3656014","INCLINATION":"53.2178","ARG_OF_PERICENTER":"80.7816","REV_AT_EPOCH":"130","ELEMENT_SET_NO":"999","ECCENTRICITY":"0.00012710","CENTER_NAME":"EARTH","PERIOD":"92.471","GP_ID":"217788339","PERIAPSIS":"394.798"}];
